APRIZESAT 2             
1 28366U 04025A   26199.24792882  .00000084  00000+0  39072-4 0  9991
2 28366  98.1045   3.4743 0106126 155.6863 204.9385 14.38048428156101
SAUDICOMSAT 1           
1 28369U 04025D   26199.02050434  .00000124  00000+0  39886-4 0  9998
2 28369  98.5778 209.9851 0030919 289.9264  69.8603 14.55494652168619
SAUDICOMSAT 2           
1 28370U 04025E   26198.97097998  .00000084  00000+0  33843-4 0  9991
2 28370  98.6643 212.0877 0055805 165.2977 194.9855 14.49995151164566
APRIZESAT 1             
1 28372U 04025G   26199.30909818  .00000098  00000+0  36109-4 0  9997
2 28372  98.6310 210.8822 0045694  61.4578 299.1205 14.51793022166424
NANOSAT-1               
1 28493U 04049B   26198.92698875  .00000459  00000+0  67647-4 0  9994
2 28493  98.2314 336.3469 0004012 175.3136 184.8114 14.80213681159996
SAUDICOMSAT 7           
1 31119U 07012C   26199.16554796  .00000238  00000+0  51756-4 0  9995
2 31119  98.3801 173.9349 0057027  99.1935 261.5725 14.66138317 26971
SAUDICOMSAT 6           
1 31121U 07012E   26199.14976928  .00000156  00000+0  39995-4 0  9991
2 31121  98.4120 167.2468 0070641 229.7460 129.7550 14.62585864 24718
SAUDICOMSAT 5           
1 31124U 07012H   26198.89111367  .00000292  00000+0  59072-4 0  9992
2 31124  98.3512 174.3958 0048068  30.4981 329.9003 14.68194071 28107
SAUDICOMSAT 3           
1 31125U 07012J   26198.86635843  .00000325  00000+0  61523-4 0  9991
2 31125  98.3166 174.9168 0038096 316.6201  43.2008 14.70751822 29339
SAUDICOMSAT 4           
1 31127U 07012L   26198.89971422  .00000191  00000+0  44752-4 0  9998
2 31127  98.4005 172.1003 0063760 161.3240 199.0322 14.64536688 25784
APRIZESAT 4             
1 35684U 09041D   26199.14042872  .00000325  00000+0  45540-4 0  9996
2 35684  98.1402 275.0765 0042417 219.7639 140.0464 14.83916101915951
APRIZESAT 3             
1 35686U 09041F   26198.99424647  .00000407  00000+0  40685-4 0  9990
2 35686  98.2105 353.7018 0060725 326.5808  33.1585 14.96314840920987
S-NET D                 
1 43186U 18014G   26199.13769010  .00002469  00000+0  12860-3 0  9990
2 43186  97.5326 103.7361 0006220 271.9157  88.1364 15.16932658463457
S-NET B                 
1 43187U 18014H   26199.14975320  .00002552  00000+0  13291-3 0  9997
2 43187  97.5332 103.7356 0006834 265.9950  94.0502 15.16902266463456
S-NET A                 
1 43188U 18014J   26199.13639708  .00002416  00000+0  12588-3 0  9991
2 43188  97.5340 103.9372 0006744 266.8374  93.2088 15.16940839463454
S-NET C                 
1 43189U 18014K   26199.15379672  .00002507  00000+0  13064-3 0  9996
2 43189  97.5358 104.0337 0008114 257.8343 102.1981 15.16893322462002
SALSAT                  
1 46495U 20068K   26199.01462697  .00004061  00000+0  14177-3 0  9999
2 46495  97.8861 203.9671 0009495 182.8082 177.3106 15.30195257320078
OOV-CUBE (TUBSAT-30)    
1 60240U 24128F   26199.19456116  .00000911  00000+0  82240-4 0  9999
2 60240  61.9941 117.4425 0040736 140.6635 219.7428 15.02880615110778
LPNTSAT-001 (IOD-1)     
1 68408U 26065A   26198.91401277  .00001297  00000+0  65700-4 0  9992
2 68408  97.3976  78.7699 0014642 255.8126 104.1482 15.18676475 16929
CHUANG XIN 26 (CX-26)   
1 69972U 26158A   26199.21257111 -.00000001  00000+0  67409-4 0  9993
2 69972  49.9835 267.6844 0004910 309.8797  50.1684 14.25123776  1134
